{
  "type": "FeatureCollection",
  "features": [
    {
      "type": "Feature",
      "properties": {
        "norad_id": 43262,
        "name": "GAOFEN-1 04",
        "group": "resource",
        "lat": 44.250110637775755,
        "lon": -113.27168493850311,
        "alt_km": 636.7698104590154,
        "timestamp": "2025-12-26T22:28:05.436894+00:00",
        "meta_object_name": "GAOFEN-1 04",
        "meta_object_id": "2018-031D",
        "meta_epoch": "2025-12-26T18:36:19.063296",
        "meta_mean_motion": 14.76433724,
        "meta_eccentricity": 4.77e-05,
        "meta_inclination": 98.0784,
        "meta_ra_of_asc_node": 58.6143,
        "meta_arg_of_pericenter": 62.8203,
        "meta_mean_anomaly": 297.3055,
        "meta_ephemeris_type": 0,
        "meta_classification_type": "U",
        "meta_norad_cat_id": 43262,
        "meta_element_set_no": 999,
        "meta_rev_at_epoch": 41724,
        "meta_bstar": 0.00011609,
        "meta_mean_motion_dot": 7.56e-06,
        "meta_mean_motion_ddot": 0,
        "tle_line1": "1 43262U 18031D   25360.77522064  .00000756  00000+0  11609-3 0  9996",
        "tle_line2": "2 43262  98.0784  58.6143 0000477  62.8203 297.3055 14.76433724417241"
      },
      "geometry": {
        "type": "Point",
        "coordinates": [
          -113.27168493850311,
          44.250110637775755
        ]
      }
    },
    {
      "type": "Feature",
      "properties": {
        "norad_id": 43437,
        "name": "SENTINEL-3B",
        "group": "resource",
        "lat": -72.19676947092474,
        "lon": 94.12253059017318,
        "alt_km": 810.9968625613928,
        "timestamp": "2025-12-26T22:28:05.436909+00:00",
        "meta_object_name": "SENTINEL-3B",
        "meta_object_id": "2018-039A",
        "meta_epoch": "2025-12-26T16:05:01.913856",
        "meta_mean_motion": 14.2673937,
        "meta_eccentricity": 0.000157,
        "meta_inclination": 98.6249,
        "meta_ra_of_asc_node": 65.6546,
        "meta_arg_of_pericenter": 87.9796,
        "meta_mean_anomaly": 272.1564,
        "meta_ephemeris_type": 0,
        "meta_classification_type": "U",
        "meta_norad_cat_id": 43437,
        "meta_element_set_no": 999,
        "meta_rev_at_epoch": 39952,
        "meta_bstar": 7.7314e-05,
        "meta_mean_motion_dot": 1.43e-06,
        "meta_mean_motion_ddot": 0,
        "tle_line1": "1 43437U 18039A   25360.67016104  .00000143  00000+0  77314-4 0  9996",
        "tle_line2": "2 43437  98.6249  65.6546 0001570  87.9796 272.1564 14.26739370399529"
      },
      "geometry": {
        "type": "Point",
        "coordinates": [
          94.12253059017318,
          -72.19676947092474
        ]
      }
    },
    {
      "type": "Feature",
      "properties": {
        "norad_id": 43461,
        "name": "GAOFEN-5 01",
        "group": "resource",
        "lat": -13.499286327119261,
        "lon": 142.11138865908416,
        "alt_km": 696.0055439877688,
        "timestamp": "2025-12-26T22:28:05.436920+00:00",
        "meta_object_name": "GAOFEN-5 01",
        "meta_object_id": "2018-043A",
        "meta_epoch": "2025-12-26T18:17:45.839040",
        "meta_mean_motion": 14.60424705,
        "meta_eccentricity": 5.92e-05,
        "meta_inclination": 98.4347,
        "meta_ra_of_asc_node": 323.9759,
        "meta_arg_of_pericenter": 226.7567,
        "meta_mean_anomaly": 133.3583,
        "meta_ephemeris_type": 0,
        "meta_classification_type": "U",
        "meta_norad_cat_id": 43461,
        "meta_element_set_no": 999,
        "meta_rev_at_epoch": 40652,
        "meta_bstar": 0.0001151,
        "meta_mean_motion_dot": 5.09e-06,
        "meta_mean_motion_ddot": 0,
        "tle_line1": "1 43461U 18043A   25360.76233610  .00000509  00000+0  11510-3 0  9992",
        "tle_line2": "2 43461  98.4347 323.9759 0000592 226.7567 133.3583 14.60424705406520"
      },
      "geometry": {
        "type": "Point",
        "coordinates": [
          142.11138865908416,
          -13.499286327119261
        ]
      }
    },
    {
      "type": "Feature",
      "properties": {
        "norad_id": 43484,
        "name": "GAOFEN-6",
        "group": "resource",
        "lat": -65.92138685883582,
        "lon": 82.58966679700121,
        "alt_km": 647.0649941926895,
        "timestamp": "2025-12-26T22:28:05.436930+00:00",
        "meta_object_name": "GAOFEN-6",
        "meta_object_id": "2018-048A",
        "meta_epoch": "2025-12-26T17:53:32.572032",
        "meta_mean_motion": 14.76591305,
        "meta_eccentricity": 0.0012449,
        "meta_inclination": 97.8007,
        "meta_ra_of_asc_node": 64.5408,
        "meta_arg_of_pericenter": 21.7527,
        "meta_mean_anomaly": 338.421,
        "meta_ephemeris_type": 0,
        "meta_classification_type": "U",
        "meta_norad_cat_id": 43484,
        "meta_element_set_no": 999,
        "meta_rev_at_epoch": 40794,
        "meta_bstar": 0.0001634,
        "meta_mean_motion_dot": 1.092e-05,
        "meta_mean_motion_ddot": 0,
        "tle_line1": "1 43484U 18048A   25360.74551588  .00001092  00000+0  16340-3 0  9991",
        "tle_line2": "2 43484  97.8007  64.5408 0012449  21.7527 338.4210 14.76591305407943"
      },
      "geometry": {
        "type": "Point",
        "coordinates": [
          82.58966679700121,
          -65.92138685883582
        ]
      }
    },
    {
      "type": "Feature",
      "properties": {
        "norad_id": 43585,
        "name": "GAOFEN-11 01",
        "group": "resource",
        "lat": -35.62105105268295,
        "lon": -121.40977714590737,
        "alt_km": 421.7562420401355,
        "timestamp": "2025-12-26T22:28:05.436941+00:00",
        "meta_object_name": "GAOFEN-11 01",
        "meta_object_id": "2018-063A",
        "meta_epoch": "2025-12-26T18:26:22.958592",
        "meta_mean_motion": 15.49614651,
        "meta_eccentricity": 0.0003989,
        "meta_inclination": 97.1534,
        "meta_ra_of_asc_node": 63.5865,
        "meta_arg_of_pericenter": 240.2494,
        "meta_mean_anomaly": 119.8361,
        "meta_ephemeris_type": 0,
        "meta_classification_type": "U",
        "meta_norad_cat_id": 43585,
        "meta_element_set_no": 999,
        "meta_rev_at_epoch": 41359,
        "meta_bstar": 0.0002443,
        "meta_mean_motion_dot": 0.00013424,
        "meta_mean_motion_ddot": 0,
        "tle_line1": "1 43585U 18063A   25360.76832128  .00013424  00000+0  24430-3 0  9995",
        "tle_line2": "2 43585  97.1534  63.5865 0003989 240.2494 119.8361 15.49614651413596"
      },
      "geometry": {
        "type": "Point",
        "coordinates": [
          -121.40977714590737,
          -35.62105105268295
        ]
      }
    },
    {
      "type": "Feature",
      "properties": {
        "norad_id": 43613,
        "name": "ICESAT-2",
        "group": "resource",
        "lat": -51.08000354397602,
        "lon": -112.94669588880313,
        "alt_km": 490.08958015645567,
        "timestamp": "2025-12-26T22:28:05.436953+00:00",
        "meta_object_name": "ICESAT-2",
        "meta_object_id": "2018-070A",
        "meta_epoch": "2025-12-26T17:58:37.733376",
        "meta_mean_motion": 15.28278156,
        "meta_eccentricity": 0.0003222,
        "meta_inclination": 92.0036,
        "meta_ra_of_asc_node": 244.518,
        "meta_arg_of_pericenter": 108.5082,
        "meta_mean_anomaly": 251.6518,
        "meta_ephemeris_type": 0,
        "meta_classification_type": "U",
        "meta_norad_cat_id": 43613,
        "meta_element_set_no": 999,
        "meta_rev_at_epoch": 40612,
        "meta_bstar": 0.00047719,
        "meta_mean_motion_dot": 0.00013147,
        "meta_mean_motion_ddot": 0,
        "tle_line1": "1 43613U 18070A   25360.74904784  .00013147  00000+0  47719-3 0  9998",
        "tle_line2": "2 43613  92.0036 244.5180 0003222 108.5082 251.6518 15.28278156406122"
      },
      "geometry": {
        "type": "Point",
        "coordinates": [
          -112.94669588880313,
          -51.08000354397602
        ]
      }
    },
    {
      "type": "Feature",
      "properties": {
        "norad_id": 43719,
        "name": "HYSIS",
        "group": "resource",
        "lat": 73.05251233105741,
        "lon": 36.3307489950058,
        "alt_km": 625.9808454757904,
        "timestamp": "2025-12-26T22:28:05.436963+00:00",
        "meta_object_name": "HYSIS",
        "meta_object_id": "2018-096A",
        "meta_epoch": "2025-12-26T17:15:29.037312",
        "meta_mean_motion": 14.78681831,
        "meta_eccentricity": 7.68e-05,
        "meta_inclination": 98.0074,
        "meta_ra_of_asc_node": 63.6273,
        "meta_arg_of_pericenter": 52.8343,
        "meta_mean_anomaly": 307.2938,
        "meta_ephemeris_type": 0,
        "meta_classification_type": "U",
        "meta_norad_cat_id": 43719,
        "meta_element_set_no": 999,
        "meta_rev_at_epoch": 38193,
        "meta_bstar": 0.00015937,
        "meta_mean_motion_dot": 1.116e-05,
        "meta_mean_motion_ddot": 0,
        "tle_line1": "1 43719U 18096A   25360.71908608  .00001116  00000+0  15937-3 0  9999",
        "tle_line2": "2 43719  98.0074  63.6273 0000768  52.8343 307.2938 14.78681831381930"
      },
      "geometry": {
        "type": "Point",
        "coordinates": [
          36.3307489950058,
          73.05251233105741
        ]
      }
    }
  ]
}